[{"OBJECT_NAME":"STARLINK-3870","OBJECT_ID":"2022-049A","EPOCH":"2026-03-09T23:26:40.397280","MEAN_MOTION":15.08864564,"ECCENTRICITY":0.00011249,"INCLINATION":53.2168,"RA_OF_ASC_NODE":67.83,"ARG_OF_PERICENTER":101.1537,"MEAN_ANOMALY":258.9581,"EPHEMERIS_TYPE":0,"CLASSIFICATION_TYPE":"U","NORAD_CAT_ID":52451,"ELEMENT_SET_NO":999,"REV_AT_EPOCH":21215,"BSTAR":0.00022414535,"MEAN_MOTION_DOT":3.284e-5,"MEAN_MOTION_DDOT":0},{"OBJECT_NAME":"COSMOS 2058","OBJECT_ID":"1990-010A","EPOCH":"2026-03-09T23:30:01.891584","MEAN_MOTION":15.11324867,"ECCENTRICITY":0.00093159,"INCLINATION":82.4669,"RA_OF_ASC_NODE":47.1427,"ARG_OF_PERICENTER":343.3032,"MEAN_ANOMALY":16.789,"EPHEMERIS_TYPE":0,"CLASSIFICATION_TYPE":"U","NORAD_CAT_ID":20465,"ELEMENT_SET_NO":999,"REV_AT_EPOCH":94228,"BSTAR":0.00029943939,"MEAN_MOTION_DOT":5.077e-5,"MEAN_MOTION_DDOT":0}]
